{
  "links" : {
    "next" : "https://api.nasa.gov/neo/rest/v1/feed?start_date=2014-01-09&end_date=2014-01-09&detailed=true&api_key=t0TVs3DtDT2H8Oy2Zy8m2eVrNsAVKAexjcZXUckd",
    "prev" : "https://api.nasa.gov/neo/rest/v1/feed?start_date=2014-01-07&end_date=2014-01-07&detailed=true&api_key=t0TVs3DtDT2H8Oy2Zy8m2eVrNsAVKAexjcZXUckd",
    "self" : "https://api.nasa.gov/neo/rest/v1/feed?start_date=2014-01-08&end_date=2014-01-08&detailed=true&api_key=t0TVs3DtDT2H8Oy2Zy8m2eVrNsAVKAexjcZXUckd"
  },
  "element_count" : 11,
  "near_earth_objects" : {
    "2014-01-08" : [ {
      "links" : {
        "self" : "https://api.nasa.gov/neo/rest/v1/neo/3602687?api_key=t0TVs3DtDT2H8Oy2Zy8m2eVrNsAVKAexjcZXUckd"
      },
      "neo_reference_id" : "3602687",
      "name" : "(2012 HN1)",
      "nasa_jpl_url" : "http://ssd.jpl.nasa.gov/sbdb.cgi?sstr=3602687",
      "absolute_magnitude_h" : 27.0,
      "estimated_diameter" : {
        "kilometers" : {
          "estimated_diameter_min" : 0.0105816886,
          "estimated_diameter_max" : 0.023661375
        },
        "meters" : {
          "estimated_diameter_min" : 10.5816885933,
          "estimated_diameter_max" : 23.6613750114
        },
        "miles" : {
          "estimated_diameter_min" : 0.0065751544,
          "estimated_diameter_max" : 0.0147024923
        },
        "feet" : {
          "estimated_diameter_min" : 34.7168272045,
          "estimated_diameter_max" : 77.6291855923
        }
      },
      "is_potentially_hazardous_asteroid" : false,
      "close_approach_data" : [ {
        "close_approach_date" : "2014-01-08",
        "epoch_date_close_approach" : 1389168000000,
        "relative_velocity" : {
          "kilometers_per_second" : "4.9571313409",
          "kilometers_per_hour" : "17845.6728272311",
          "miles_per_hour" : "11088.6070964537"
        },
        "miss_distance" : {
          "astronomical" : "0.1991853297",
          "lunar" : "77.4830932617",
          "kilometers" : "29797702",
          "miles" : "18515432"
        },
        "orbiting_body" : "Earth"
      } ],
      "orbital_data" : {
        "orbit_id" : "6",
        "orbit_determination_date" : "2017-04-06 08:50:04",
        "orbit_uncertainty" : "6",
        "minimum_orbit_intersection" : ".0111055",
        "jupiter_tisserand_invariant" : "5.949",
        "epoch_osculation" : "2458000.5",
        "eccentricity" : ".153070476029274",
        "semi_major_axis" : "1.025915066430886",
        "inclination" : "2.405219572804315",
        "ascending_node_longitude" : "194.7593795654228",
        "orbital_period" : "379.5469786711313",
        "perihelion_distance" : ".8688777588467061",
        "perihelion_argument" : "108.7764164946363",
        "aphelion_distance" : "1.182952374015066",
        "perihelion_time" : "2458014.659158406843",
        "mean_anomaly" : "346.5700497885401",
        "mean_motion" : ".9484991851612965",
        "equinox" : "J2000"
      }
    }, {
      "links" : {
        "self" : "https://api.nasa.gov/neo/rest/v1/neo/3655974?api_key=t0TVs3DtDT2H8Oy2Zy8m2eVrNsAVKAexjcZXUckd"
      },
      "neo_reference_id" : "3655974",
      "name" : "(2014 AK51)",
      "nasa_jpl_url" : "http://ssd.jpl.nasa.gov/sbdb.cgi?sstr=3655974",
      "absolute_magnitude_h" : 26.6,
      "estimated_diameter" : {
        "kilometers" : {
          "estimated_diameter_min" : 0.0127219879,
          "estimated_diameter_max" : 0.0284472297
        },
        "meters" : {
          "estimated_diameter_min" : 12.7219878539,
          "estimated_diameter_max" : 28.4472296503
        },
        "miles" : {
          "estimated_diameter_min" : 0.0079050743,
          "estimated_diameter_max" : 0.0176762835
        },
        "feet" : {
          "estimated_diameter_min" : 41.7388066307,
          "estimated_diameter_max" : 93.330808926
        }
      },
      "is_potentially_hazardous_asteroid" : false,
      "close_approach_data" : [ {
        "close_approach_date" : "2014-01-08",
        "epoch_date_close_approach" : 1389168000000,
        "relative_velocity" : {
          "kilometers_per_second" : "9.2752065222",
          "kilometers_per_hour" : "33390.7434799836",
          "miles_per_hour" : "20747.7094695487"
        },
        "miss_distance" : {
          "astronomical" : "0.0024683234",
          "lunar" : "0.9601777792",
          "kilometers" : "369255.90625",
          "miles" : "229444.984375"
        },
        "orbiting_body" : "Earth"
      } ],
      "orbital_data" : {
        "orbit_id" : "5",
        "orbit_determination_date" : "2017-08-10 06:17:41",
        "orbit_uncertainty" : "7",
        "minimum_orbit_intersection" : ".00093191",
        "jupiter_tisserand_invariant" : "2.897",
        "epoch_osculation" : "2458000.5",
        "eccentricity" : ".6662056598974132",
        "semi_major_axis" : "2.923540540062364",
        "inclination" : "2.286797231490649",
        "ascending_node_longitude" : "105.4513145486245",
        "orbital_period" : "1825.837436875983",
        "perihelion_distance" : ".9758612853332769",
        "perihelion_argument" : "348.2896356706116",
        "aphelion_distance" : "4.871219794791451",
        "perihelion_time" : "2458480.281059357949",
        "mean_anomaly" : "265.4016650768272",
        "mean_motion" : ".1971697987614723",
        "equinox" : "J2000"
      }
    }, {
      "links" : {
        "self" : "https://api.nasa.gov/neo/rest/v1/neo/3653903?api_key=t0TVs3DtDT2H8Oy2Zy8m2eVrNsAVKAexjcZXUckd"
      },
      "neo_reference_id" : "3653903",
      "name" : "(2013 WS43)",
      "nasa_jpl_url" : "http://ssd.jpl.nasa.gov/sbdb.cgi?sstr=3653903",
      "absolute_magnitude_h" : 22.8,
      "estimated_diameter" : {
        "kilometers" : {
          "estimated_diameter_min" : 0.0732073989,
          "estimated_diameter_max" : 0.1636967205
        },
        "meters" : {
          "estimated_diameter_min" : 73.2073989347,
          "estimated_diameter_max" : 163.696720474
        },
        "miles" : {
          "estimated_diameter_min" : 0.0454889547,
          "estimated_diameter_max" : 0.1017163949
        },
        "feet" : {
          "estimated_diameter_min" : 240.181762721,
          "estimated_diameter_max" : 537.0627483999
        }
      },
      "is_potentially_hazardous_asteroid" : false,
      "close_approach_data" : [ {
        "close_approach_date" : "2014-01-08",
        "epoch_date_close_approach" : 1389168000000,
        "relative_velocity" : {
          "kilometers_per_second" : "6.5387795981",
          "kilometers_per_hour" : "23539.6065533104",
          "miles_per_hour" : "14626.5960830833"
        },
        "miss_distance" : {
          "astronomical" : "0.060595012",
          "lunar" : "23.5714607239",
          "kilometers" : "9064885",
          "miles" : "5632658.5"
        },
        "orbiting_body" : "Earth"
      } ],
      "orbital_data" : {
        "orbit_id" : "23",
        "orbit_determination_date" : "2017-05-15 13:59:51",
        "orbit_uncertainty" : "5",
        "minimum_orbit_intersection" : ".0598057",
        "jupiter_tisserand_invariant" : "4.013",
        "epoch_osculation" : "2458000.5",
        "eccentricity" : ".4399364022827785",
        "semi_major_axis" : "1.748907922905359",
        "inclination" : "4.590728568255901",
        "ascending_node_longitude" : "60.88514350279264",
        "orbital_period" : "844.7901562076921",
        "perihelion_distance" : ".9794996633785282",
        "perihelion_argument" : "67.46077412801995",
        "aphelion_distance" : "2.518316182432189",
        "perihelion_time" : "2458373.079672198164",
        "mean_anomaly" : "201.2284032836631",
        "mean_motion" : ".4261413291272937",
        "equinox" : "J2000"
      }
    } ]
  }
}